[{"OBJECT_NAME":"GHGSAT-C4","OBJECT_ID":"2022-057Q","EPOCH":"2026-03-09T22:58:28.655904","MEAN_MOTION":15.3293316,"ECCENTRICITY":0.0007552,"INCLINATION":97.6357,"RA_OF_ASC_NODE":210.0193,"ARG_OF_PERICENTER":100.0033,"MEAN_ANOMALY":260.2061,"EPHEMERIS_TYPE":0,"CLASSIFICATION_TYPE":"U","NORAD_CAT_ID":52746,"ELEMENT_SET_NO":999,"REV_AT_EPOCH":21033,"BSTAR":0.00030289005,"MEAN_MOTION_DOT":9.562e-5,"MEAN_MOTION_DDOT":0},{"OBJECT_NAME":"STARLINK-32543","OBJECT_ID":"2025-063B","EPOCH":"2026-03-09T07:43:30.562464","MEAN_MOTION":15.3021256,"ECCENTRICITY":0.00014454,"INCLINATION":53.1595,"RA_OF_ASC_NODE":51.307,"ARG_OF_PERICENTER":92.2104,"MEAN_ANOMALY":267.9062,"EPHEMERIS_TYPE":0,"CLASSIFICATION_TYPE":"U","NORAD_CAT_ID":63364,"ELEMENT_SET_NO":999,"REV_AT_EPOCH":5473,"BSTAR":0.00079632037,"MEAN_MOTION_DOT":0.00023309,"MEAN_MOTION_DDOT":0}]
